ONEWEB-0354             
1 49217U 21083AH  26049.11914228  .00000200  00000+0  46065-3 0  9991
2 49217  87.9205 298.2055 0001926  78.3907 281.7442 13.20770885221092
ONEWEB-0355             
1 49218U 21083AJ  26049.21690630 -.00000176  00000+0 -51604-3 0  9990
2 49218  87.9030 343.9012 0001916  85.2530 274.8818 13.13471943215287
ONEWEB-0357             
1 49219U 21083AK  26049.19174211  .00000127  00000+0  27984-3 0  9998
2 49219  87.9201 298.1859 0001607  85.4164 274.7153 13.20771623221105
ONEWEB-0332             
1 49279U 21090A   26049.24651810 -.00000080  00000+0 -25042-3 0  9996
2 49279  87.9005 313.4319 0001453  82.8568 277.2727 13.14503153211954
ONEWEB-0347             
1 49280U 21090B   26049.18227092  .00000120  00000+0  26199-3 0  9999
2 49280  87.9205 298.1964 0001327  77.4828 282.6454 13.20771894215331
ONEWEB-0349             
1 49281U 21090C   26049.21384578  .00000091  00000+0  19214-3 0  9994
2 49281  87.9201 298.1898 0001629  80.7829 279.3488 13.20771524214123
ONEWEB-0353             
1 49282U 21090D   26049.23859364  .00000037  00000+0  64019-4 0  9991
2 49282  87.9018 313.4262 0001396  79.7440 280.3847 13.14505634211953
ONEWEB-0356             
1 49283U 21090E   26049.21225833  .00000060  00000+0  11492-3 0  9990
2 49283  87.9204 298.1839 0001516  47.5067 312.6195 13.20771635214122
ONEWEB-0358             
1 49284U 21090F   26049.24225072  .00000069  00000+0  13803-3 0  9996
2 49284  87.9206 298.1803 0001702  76.6482 283.4841 13.20770970214851
ONEWEB-0359             
1 49285U 21090G   26049.16334443  .00000046  00000+0  81113-4 0  9996
2 49285  87.9205 298.1933 0001902  78.8212 281.3135 13.20773268214825
ONEWEB-0360             
1 49286U 21090H   26049.22962108  .00000072  00000+0  14533-3 0  9999
2 49286  87.9204 298.1869 0001767  81.5495 278.5838 13.20771870214146
ONEWEB-0361             
1 49287U 21090J   26049.21068380  .00000119  00000+0  25966-3 0  9992
2 49287  87.9202 298.1882 0001575  73.0777 287.0529 13.20771424214592
ONEWEB-0362             
1 49288U 21090K   26049.22067642  .00000008  00000+0 -12098-4 0  9995
2 49288  87.9247 328.6690 0001845  85.9354 274.1990 13.19724631211223
ONEWEB-0363             
1 49289U 21090L   26049.22646346  .00000031  00000+0  44734-4 0  9997
2 49289  87.9206 298.1854 0001618  68.1657 291.9648 13.20770996214608
ONEWEB-0364             
1 49290U 21090M   26049.18858797  .00000101  00000+0  21690-3 0  9992
2 49290  87.9193 298.2097 0001629  75.6284 284.5030 13.20770886215732
ONEWEB-0365             
1 49291U 21090N   26049.23014823  .00000010  00000+0 -71300-5 0  9998
2 49291  87.9262 328.6442 0001704  80.7525 279.3800 13.19726138210732
ONEWEB-0366             
1 49292U 21090P   26049.23541910 -.00000278  00000+0 -78367-3 0  9996
2 49292  87.9007 313.4385 0001728  75.9152 284.2169 13.14503226211938
