[{"OBJECT_NAME":"ONEWEB-0354","OBJECT_ID":"2021-083AH","EPOCH":"2026-02-18T02:51:33.892992","MEAN_MOTION":13.20770885,"ECCENTRICITY":0.00019262,"INCLINATION":87.9205,"RA_OF_ASC_NODE":298.2055,"ARG_OF_PERICENTER":78.3907,"MEAN_ANOMALY":281.7442,"EPHEMERIS_TYPE":0,"CLASSIFICATION_TYPE":"U","NORAD_CAT_ID":49217,"ELEMENT_SET_NO":999,"REV_AT_EPOCH":22109,"BSTAR":0.00046065136,"MEAN_MOTION_DOT":2.0e-6,"MEAN_MOTION_DDOT":0},{"OBJECT_NAME":"ONEWEB-0355","OBJECT_ID":"2021-083AJ","EPOCH":"2026-02-18T05:12:20.704320","MEAN_MOTION":13.13471943,"ECCENTRICITY":0.00019169,"INCLINATION":87.903,"RA_OF_ASC_NODE":343.9012,"ARG_OF_PERICENTER":85.253,"MEAN_ANOMALY":274.8818,"EPHEMERIS_TYPE":0,"CLASSIFICATION_TYPE":"U","NORAD_CAT_ID":49218,"ELEMENT_SET_NO":999,"REV_AT_EPOCH":21528,"BSTAR":-0.00051603537,"MEAN_MOTION_DOT":-1.76e-6,"MEAN_MOTION_DDOT":0},{"OBJECT_NAME":"ONEWEB-0357","OBJECT_ID":"2021-083AK","EPOCH":"2026-02-18T04:36:06.518304","MEAN_MOTION":13.20771623,"ECCENTRICITY":0.00016076,"INCLINATION":87.9201,"RA_OF_ASC_NODE":298.1859,"ARG_OF_PERICENTER":85.4164,"MEAN_ANOMALY":274.7153,"EPHEMERIS_TYPE":0,"CLASSIFICATION_TYPE":"U","NORAD_CAT_ID":49219,"ELEMENT_SET_NO":999,"REV_AT_EPOCH":22110,"BSTAR":0.00027983947,"MEAN_MOTION_DOT":1.27e-6,"MEAN_MOTION_DDOT":0},{"OBJECT_NAME":"ONEWEB-0332","OBJECT_ID":"2021-090A","EPOCH":"2026-02-18T05:54:59.163840","MEAN_MOTION":13.14503153,"ECCENTRICITY":0.00014534,"INCLINATION":87.9005,"RA_OF_ASC_NODE":313.4319,"ARG_OF_PERICENTER":82.8568,"MEAN_ANOMALY":277.2727,"EPHEMERIS_TYPE":0,"CLASSIFICATION_TYPE":"U","NORAD_CAT_ID":49279,"ELEMENT_SET_NO":999,"REV_AT_EPOCH":21195,"BSTAR":-0.00025042282,"MEAN_MOTION_DOT":-8.0e-7,"MEAN_MOTION_DDOT":0},{"OBJECT_NAME":"ONEWEB-0347","OBJECT_ID":"2021-090B","EPOCH":"2026-02-18T04:22:28.207488","MEAN_MOTION":13.20771894,"ECCENTRICITY":0.00013279,"INCLINATION":87.9205,"RA_OF_ASC_NODE":298.1964,"ARG_OF_PERICENTER":77.4828,"MEAN_ANOMALY":282.6454,"EPHEMERIS_TYPE":0,"CLASSIFICATION_TYPE":"U","NORAD_CAT_ID":49280,"ELEMENT_SET_NO":999,"REV_AT_EPOCH":21533,"BSTAR":0.00026199302,"MEAN_MOTION_DOT":1.2e-6,"MEAN_MOTION_DDOT":0},{"OBJECT_NAME":"ONEWEB-0349","OBJECT_ID":"2021-090C","EPOCH":"2026-02-18T05:07:56.275392","MEAN_MOTION":13.20771524,"ECCENTRICITY":0.00016297,"INCLINATION":87.9201,"RA_OF_ASC_NODE":298.1898,"ARG_OF_PERICENTER":80.7829,"MEAN_ANOMALY":279.3488,"EPHEMERIS_TYPE":0,"CLASSIFICATION_TYPE":"U","NORAD_CAT_ID":49281,"ELEMENT_SET_NO":999,"REV_AT_EPOCH":21412,"BSTAR":0.00019213898,"MEAN_MOTION_DOT":9.1e-7,"MEAN_MOTION_DDOT":0},{"OBJECT_NAME":"ONEWEB-0353","OBJECT_ID":"2021-090D","EPOCH":"2026-02-18T05:43:34.490496","MEAN_MOTION":13.14505634,"ECCENTRICITY":0.00013962,"INCLINATION":87.9018,"RA_OF_ASC_NODE":313.4262,"ARG_OF_PERICENTER":79.744,"MEAN_ANOMALY":280.3847,"EPHEMERIS_TYPE":0,"CLASSIFICATION_TYPE":"U","NORAD_CAT_ID":49282,"ELEMENT_SET_NO":999,"REV_AT_EPOCH":21195,"BSTAR":6.4019341e-5,"MEAN_MOTION_DOT":3.7e-7,"MEAN_MOTION_DDOT":0},{"OBJECT_NAME":"ONEWEB-0356","OBJECT_ID":"2021-090E","EPOCH":"2026-02-18T05:05:39.119712","MEAN_MOTION":13.20771635,"ECCENTRICITY":0.0001516,"INCLINATION":87.9204,"RA_OF_ASC_NODE":298.1839,"ARG_OF_PERICENTER":47.5067,"MEAN_ANOMALY":312.6195,"EPHEMERIS_TYPE":0,"CLASSIFICATION_TYPE":"U","NORAD_CAT_ID":49283,"ELEMENT_SET_NO":999,"REV_AT_EPOCH":21412,"BSTAR":0.00011491771,"MEAN_MOTION_DOT":6.0e-7,"MEAN_MOTION_DDOT":0},{"OBJECT_NAME":"ONEWEB-0358","OBJECT_ID":"2021-090F","EPOCH":"2026-02-18T05:48:50.462208","MEAN_MOTION":13.2077097,"ECCENTRICITY":0.00017028,"INCLINATION":87.9206,"RA_OF_ASC_NODE":298.1803,"ARG_OF_PERICENTER":76.6482,"MEAN_ANOMALY":283.4841,"EPHEMERIS_TYPE":0,"CLASSIFICATION_TYPE":"U","NORAD_CAT_ID":49284,"ELEMENT_SET_NO":999,"REV_AT_EPOCH":21485,"BSTAR":0.00013802792,"MEAN_MOTION_DOT":6.9e-7,"MEAN_MOTION_DDOT":0},{"OBJECT_NAME":"ONEWEB-0359","OBJECT_ID":"2021-090G","EPOCH":"2026-02-18T03:55:12.958752","MEAN_MOTION":13.20773268,"ECCENTRICITY":0.00019029,"INCLINATION":87.9205,"RA_OF_ASC_NODE":298.1933,"ARG_OF_PERICENTER":78.8212,"MEAN_ANOMALY":281.3135,"EPHEMERIS_TYPE":0,"CLASSIFICATION_TYPE":"U","NORAD_CAT_ID":49285,"ELEMENT_SET_NO":999,"REV_AT_EPOCH":21482,"BSTAR":8.1113391e-5,"MEAN_MOTION_DOT":4.6e-7,"MEAN_MOTION_DDOT":0},{"OBJECT_NAME":"ONEWEB-0360","OBJECT_ID":"2021-090H","EPOCH":"2026-02-18T05:30:39.261312","MEAN_MOTION":13.2077187,"ECCENTRICITY":0.00017671,"INCLINATION":87.9204,"RA_OF_ASC_NODE":298.1869,"ARG_OF_PERICENTER":81.5495,"MEAN_ANOMALY":278.5838,"EPHEMERIS_TYPE":0,"CLASSIFICATION_TYPE":"U","NORAD_CAT_ID":49286,"ELEMENT_SET_NO":999,"REV_AT_EPOCH":21414,"BSTAR":0.00014532669,"MEAN_MOTION_DOT":7.2e-7,"MEAN_MOTION_DDOT":0},{"OBJECT_NAME":"ONEWEB-0361","OBJECT_ID":"2021-090J","EPOCH":"2026-02-18T05:03:23.080320","MEAN_MOTION":13.20771424,"ECCENTRICITY":0.00015754,"INCLINATION":87.9202,"RA_OF_ASC_NODE":298.1882,"ARG_OF_PERICENTER":73.0777,"MEAN_ANOMALY":287.0529,"EPHEMERIS_TYPE":0,"CLASSIFICATION_TYPE":"U","NORAD_CAT_ID":49287,"ELEMENT_SET_NO":999,"REV_AT_EPOCH":21459,"BSTAR":0.00025965799,"MEAN_MOTION_DOT":1.19e-6,"MEAN_MOTION_DDOT":0},{"OBJECT_NAME":"ONEWEB-0362","OBJECT_ID":"2021-090K","EPOCH":"2026-02-18T05:17:46.442688","MEAN_MOTION":13.19724631,"ECCENTRICITY":0.00018457,"INCLINATION":87.9247,"RA_OF_ASC_NODE":328.669,"ARG_OF_PERICENTER":85.9354,"MEAN_ANOMALY":274.199,"EPHEMERIS_TYPE":0,"CLASSIFICATION_TYPE":"U","NORAD_CAT_ID":49288,"ELEMENT_SET_NO":999,"REV_AT_EPOCH":21122,"BSTAR":-1.209791e-5,"MEAN_MOTION_DOT":8.0e-8,"MEAN_MOTION_DDOT":0},{"OBJECT_NAME":"ONEWEB-0363","OBJECT_ID":"2021-090L","EPOCH":"2026-02-18T05:26:06.442944","MEAN_MOTION":13.20770996,"ECCENTRICITY":0.00016188,"INCLINATION":87.9206,"RA_OF_ASC_NODE":298.1854,"ARG_OF_PERICENTER":68.1657,"MEAN_ANOMALY":291.9648,"EPHEMERIS_TYPE":0,"CLASSIFICATION_TYPE":"U","NORAD_CAT_ID":49289,"ELEMENT_SET_NO":999,"REV_AT_EPOCH":21460,"BSTAR":4.4734416e-5,"MEAN_MOTION_DOT":3.1e-7,"MEAN_MOTION_DDOT":0},{"OBJECT_NAME":"ONEWEB-0364","OBJECT_ID":"2021-090M","EPOCH":"2026-02-18T04:31:34.000608","MEAN_MOTION":13.20770886,"ECCENTRICITY":0.00016296,"INCLINATION":87.9193,"RA_OF_ASC_NODE":298.2097,"ARG_OF_PERICENTER":75.6284,"MEAN_ANOMALY":284.503,"EPHEMERIS_TYPE":0,"CLASSIFICATION_TYPE":"U","NORAD_CAT_ID":49290,"ELEMENT_SET_NO":999,"REV_AT_EPOCH":21573,"BSTAR":0.00021690013,"MEAN_MOTION_DOT":1.01e-6,"MEAN_MOTION_DDOT":0},{"OBJECT_NAME":"ONEWEB-0365","OBJECT_ID":"2021-090N","EPOCH":"2026-02-18T05:31:24.807072","MEAN_MOTION":13.19726138,"ECCENTRICITY":0.00017049,"INCLINATION":87.9262,"RA_OF_ASC_NODE":328.6442,"ARG_OF_PERICENTER":80.7525,"MEAN_ANOMALY":279.38,"EPHEMERIS_TYPE":0,"CLASSIFICATION_TYPE":"U","NORAD_CAT_ID":49291,"ELEMENT_SET_NO":999,"REV_AT_EPOCH":21073,"BSTAR":-7.130026e-6,"MEAN_MOTION_DOT":1.0e-7,"MEAN_MOTION_DDOT":0},{"OBJECT_NAME":"ONEWEB-0366","OBJECT_ID":"2021-090P","EPOCH":"2026-02-18T05:39:00.210240","MEAN_MOTION":13.14503226,"ECCENTRICITY":0.00017288,"INCLINATION":87.9007,"RA_OF_ASC_NODE":313.4385,"ARG_OF_PERICENTER":75.9152,"MEAN_ANOMALY":284.2169,"EPHEMERIS_TYPE":0,"CLASSIFICATION_TYPE":"U","NORAD_CAT_ID":49292,"ELEMENT_SET_NO":999,"REV_AT_EPOCH":21193,"BSTAR":-0.00078366686,"MEAN_MOTION_DOT":-2.78e-6,"MEAN_MOTION_DDOT":0}]
